COSMOS 2361             
1 25590U 98076A   24153.23565882  .00000065  00000+0  54163-4 0  9998
2 25590  82.9362  37.7727 0032096  23.7732  94.7538 13.73118732274320
COSMOS 2378             
1 26818U 01023A   24153.23290912  .00000060  00000+0  48417-4 0  9997
2 26818  82.9287  54.4800 0032278 327.1461 144.8791 13.74049688152462
COSMOS 2389             
1 27436U 02026A   24153.58381757  .00000083  00000+0  70057-4 0  9994
2 27436  82.9515   0.8201 0046373 178.6714 197.8664 13.75064111104647
COSMOS 2398             
1 27818U 03023A   24153.56968709  .00000092  00000+0  83756-4 0  9992
2 27818  82.9473 324.7363 0030393 224.1968 200.5832 13.72295875 51453
COSMOS 2407             
1 28380U 04028A   24153.37666226  .00000083  00000+0  69539-4 0  9994
2 28380  82.9604 267.1023 0039397 176.3317 243.1654 13.76211842997287
COSMOS 2414             
1 28521U 05002A   24153.36119660  .00000084  00000+0  57320-4 0  9994
2 28521  82.9506 247.6860 0038910 296.9232  62.7958 13.87775476980398
COSMOS 2429             
1 32052U 07038A   24153.61232336  .00000076  00000+0  62481-4 0  9998
2 32052  82.9824  35.3664 0038894 155.5881 204.7128 13.75054076839180
COSMOS 2454             
1 35635U 09039A   24153.61228666  .00000082  00000+0  53678-4 0  9997
2 35635  82.9575 232.5151 0018143 229.7580 239.9248 13.89804063753834
COSMOS 2463             
1 36519U 10017A   24153.31432115  .00000074  00000+0  65378-4 0  9991
2 36519  82.9612  77.7158 0037200  41.3078  73.6572 13.71560319705686
